[{"OBJECT_NAME":"ION SCV-010","OBJECT_ID":"2023-054Q","EPOCH":"2026-03-09T16:02:35.904768","MEAN_MOTION":15.25210322,"ECCENTRICITY":0.00127052,"INCLINATION":97.3904,"RA_OF_ASC_NODE":319.4312,"ARG_OF_PERICENTER":188.785,"MEAN_ANOMALY":171.3168,"EPHEMERIS_TYPE":0,"CLASSIFICATION_TYPE":"U","NORAD_CAT_ID":56192,"ELEMENT_SET_NO":999,"REV_AT_EPOCH":16102,"BSTAR":0.00025045068,"MEAN_MOTION_DOT":6.231e-5,"MEAN_MOTION_DDOT":0},{"OBJECT_NAME":"STARLINK-30587","OBJECT_ID":"2023-158P","EPOCH":"2026-03-09T07:13:29.484480","MEAN_MOTION":15.27574217,"ECCENTRICITY":6.019e-5,"INCLINATION":43.0018,"RA_OF_ASC_NODE":28.9739,"ARG_OF_PERICENTER":248.2476,"MEAN_ANOMALY":111.8312,"EPHEMERIS_TYPE":0,"CLASSIFICATION_TYPE":"U","NORAD_CAT_ID":58064,"ELEMENT_SET_NO":999,"REV_AT_EPOCH":13351,"BSTAR":-2.8926457e-5,"MEAN_MOTION_DOT":-1.058e-5,"MEAN_MOTION_DDOT":0}]
